{"type": "FeatureCollection", "features": [ {"type": "Feature", "properties": {"norad_id": 31820, "name": "FENGYUN 1C DEB", "group": "fengyun-1c-debris", "lat": -16.7699553429598, "lon": -25.615644959089284, "alt_km": 700.6214340863926, "timestamp": "2025-12-12T05:47:29.055470+00:00", "meta": {"OBJECT_NAME": "FENGYUN 1C DEB", "OBJECT_ID": "1999-025CHJ", "EPOCH": "2025-12-10T17:30:27.142848", "MEAN_MOTION": 14.9212637, "ECCENTRICITY": 0.01503714, "INCLINATION": 98.9598, "RA_OF_ASC_NODE": 155.3912, "ARG_OF_PERICENTER": 18.4166, "MEAN_ANOMALY": 342.2411, "EPHEMERIS_TYPE": 0, "CLASSIFICATION_TYPE": "U", "NORAD_CAT_ID": 31820, "ELEMENT_SET_NO": 999, "REV_AT_EPOCH": 98226, "BSTAR": 0.0013899236, "MEAN_MOTION_DOT": 0.00017557, "MEAN_MOTION_DDOT": 0}, "tle": {"line1": "1 31820U 99025CHJ 25344.72948082  .00017557  00000+0  13899-2 0  9993", "line2": "2 31820  98.9598 155.3912 0150371  18.4166 342.2411 14.92126370982262"}}, "geometry": {"type": "Point", "coordinates": [-25.615644959089284, -16.7699553429598]}}, {"type": "Feature", "properties": {"norad_id": 31821, "name": "FENGYUN 1C DEB", "group": "fengyun-1c-debris", "lat": -65.39932486422806, "lon": -110.52712619428652, "alt_km": 736.0773773493274, "timestamp": "2025-12-12T05:47:29.055482+00:00", "meta": {"OBJECT_NAME": "FENGYUN 1C DEB", "OBJECT_ID": "1999-025CHK", "EPOCH": "2025-12-11T15:06:12.153312", "MEAN_MOTION": 14.41886159, "ECCENTRICITY": 0.02201906, "INCLINATION": 98.156, "RA_OF_ASC_NODE": 230.6337, "ARG_OF_PERICENTER": 17.9163, "MEAN_ANOMALY": 342.9635, "EPHEMERIS_TYPE": 0, "CLASSIFICATION_TYPE": "U", "NORAD_CAT_ID": 31821, "ELEMENT_SET_NO": 999, "REV_AT_EPOCH": 93645, "BSTAR": 0.0074094716, "MEAN_MOTION_DOT": 0.00032524, "MEAN_MOTION_DDOT": 0}, "tle": {"line1": "1 31821U 99025CHK 25345.62930733  .00032524  00000+0  74095-2 0  9994", "line2": "2 31821  98.1560 230.6337 0220190  17.9163 342.9635 14.41886159936457"}}, "geometry": {"type": "Point", "coordinates": [-110.52712619428652, -65.39932486422806]}}, {"type": "Feature", "properties": {"norad_id": 31823, "name": "FENGYUN 1C DEB", "group": "fengyun-1c-debris", "lat": 58.541361699371464, "lon": 56.476341696739176, "alt_km": 693.8927234128796, "timestamp": "2025-12-12T05:47:29.055493+00:00", "meta": {"OBJECT_NAME": "FENGYUN 1C DEB", "OBJECT_ID": "1999-025CHM", "EPOCH": "2025-12-11T11:29:41.299872", "MEAN_MOTION": 14.65668645, "ECCENTRICITY": 0.00371198, "INCLINATION": 99.5109, "RA_OF_ASC_NODE": 71.4988, "ARG_OF_PERICENTER": 223.1931, "MEAN_ANOMALY": 136.6355, "EPHEMERIS_TYPE": 0, "CLASSIFICATION_TYPE": "U", "NORAD_CAT_ID": 31823, "ELEMENT_SET_NO": 999, "REV_AT_EPOCH": 96699, "BSTAR": 0.0028139531, "MEAN_MOTION_DOT": 0.00015431, "MEAN_MOTION_DDOT": 0}, "tle": {"line1": "1 31823U 99025CHM 25345.47895023  .00015431  00000+0  28140-2 0  9999", "line2": "2 31823  99.5109  71.4988 0037119 223.1931 136.6355 14.65668645966990"}}, "geometry": {"type": "Point", "coordinates": [56.476341696739176, 58.541361699371464]}}, {"type": "Feature", "properties": {"norad_id": 31825, "name": "FENGYUN 1C DEB", "group": "fengyun-1c-debris", "lat": -28.181527918811977, "lon": 161.20890618069055, "alt_km": 903.3457097975097, "timestamp": "2025-12-12T05:47:29.055503+00:00", "meta": {"OBJECT_NAME": "FENGYUN 1C DEB", "OBJECT_ID": "1999-025CHP", "EPOCH": "2025-12-09T05:51:39.972096", "MEAN_MOTION": 14.21627347, "ECCENTRICITY": 0.016579, "INCLINATION": 98.5906, "RA_OF_ASC_NODE": 342.9358, "ARG_OF_PERICENTER": 348.4988, "MEAN_ANOMALY": 11.2421, "EPHEMERIS_TYPE": 0, "CLASSIFICATION_TYPE": "U", "NORAD_CAT_ID": 31825, "ELEMENT_SET_NO": 999, "REV_AT_EPOCH": 95572, "BSTAR": 0.0011959, "MEAN_MOTION_DOT": 2.973e-05, "MEAN_MOTION_DDOT": 0}, "tle": {"line1": "1 31825U 99025CHP 25343.24421264  .00002973  00000+0  11959-2 0  9993", "line2": "2 31825  98.5906 342.9358 0165790 348.4988  11.2421 14.21627347955720"}}, "geometry": {"type": "Point", "coordinates": [161.20890618069055, -28.181527918811977]}}, {"type": "Feature", "properties": {"norad_id": 31826, "name": "FENGYUN 1C DEB", "group": "fengyun-1c-debris", "lat": 74.52102422148226, "lon": -55.85876655840951, "alt_km": 855.5554314942328, "timestamp": "2025-12-12T05:47:29.055513+00:00", "meta": {"OBJECT_NAME": "FENGYUN 1C DEB", "OBJECT_ID": "1999-025CHQ", "EPOCH": "2025-12-11T11:33:00.652320", "MEAN_MOTION": 14.19272216, "ECCENTRICITY": 0.01238896, "INCLINATION": 98.6262, "RA_OF_ASC_NODE": 336.6416, "ARG_OF_PERICENTER": 192.9591, "MEAN_ANOMALY": 324.2726, "EPHEMERIS_TYPE": 0, "CLASSIFICATION_TYPE": "U", "NORAD_CAT_ID": 31826, "ELEMENT_SET_NO": 999, "REV_AT_EPOCH": 95796, "BSTAR": 0.00055045899, "MEAN_MOTION_DOT": 1.204e-05, "MEAN_MOTION_DDOT": 0}, "tle": {"line1": "1 31826U 99025CHQ 25345.48125755  .00001204  00000+0  55046-3 0  9990", "line2": "2 31826  98.6262 336.6416 0123889 192.9591 324.2726 14.19272216957968"}}, "geometry": {"type": "Point", "coordinates": [-55.85876655840951, 74.52102422148226]}}, {"type": "Feature", "properties": {"norad_id": 31829, "name": "FENGYUN 1C DEB", "group": "fengyun-1c-debris", "lat": -36.35622913364038, "lon": 162.66967349120597, "alt_km": 1053.371443915581, "timestamp": "2025-12-12T05:47:29.055523+00:00", "meta": {"OBJECT_NAME": "FENGYUN 1C DEB", "OBJECT_ID": "1999-025CHT", "EPOCH": "2025-12-10T17:46:33.788640", "MEAN_MOTION": 13.88679676, "ECCENTRICITY": 0.01690998, "INCLINATION": 98.8354, "RA_OF_ASC_NODE": 154.6728, "ARG_OF_PERICENTER": 169.8915, "MEAN_ANOMALY": 214.6031, "EPHEMERIS_TYPE": 0, "CLASSIFICATION_TYPE": "U", "NORAD_CAT_ID": 31829, "ELEMENT_SET_NO": 999, "REV_AT_EPOCH": 94120, "BSTAR": 0.00069465665, "MEAN_MOTION_DOT": 8.98e-06, "MEAN_MOTION_DDOT": 0}, "tle": {"line1": "1 31829U 99025CHT 25344.74066885  .00000898  00000+0  69466-3 0  9998", "line2": "2 31829  98.8354 154.6728 0169099 169.8915 214.6031 13.88679676941202"}}, "geometry": {"type": "Point", "coordinates": [162.66967349120597, -36.35622913364038]}}, {"type": "Feature", "properties": {"norad_id": 31830, "name": "FENGYUN 1C DEB", "group": "fengyun-1c-debris", "lat": -18.701019275180126, "lon": 95.07279330527346, "alt_km": 835.585730159185, "timestamp": "2025-12-12T05:47:29.055535+00:00", "meta": {"OBJECT_NAME": "FENGYUN 1C DEB", "OBJECT_ID": "1999-025CHU", "EPOCH": "2025-12-08T06:32:34.361088", "MEAN_MOTION": 13.83392164, "ECCENTRICITY": 0.01820132, "INCLINATION": 99.1645, "RA_OF_ASC_NODE": 88.0728, "ARG_OF_PERICENTER": 326.568, "MEAN_ANOMALY": 59.2383, "EPHEMERIS_TYPE": 0, "CLASSIFICATION_TYPE": "U", "NORAD_CAT_ID": 31830, "ELEMENT_SET_NO": 999, "REV_AT_EPOCH": 92678, "BSTAR": 0.0025930533, "MEAN_MOTION_DOT": 3.197e-05, "MEAN_MOTION_DDOT": 0}, "tle": {"line1": "1 31830U 99025CHU 25342.27261992  .00003197  00000+0  25931-2 0  9995", "line2": "2 31830  99.1645  88.0728 0182013 326.5680  59.2383 13.83392164926781"}}, "geometry": {"type": "Point", "coordinates": [95.07279330527346, -18.701019275180126]}}, {"type": "Feature", "properties": {"norad_id": 31834, "name": "FENGYUN 1C DEB", "group": "fengyun-1c-debris", "lat": 81.2603294707397, "lon": 99.72329529343912, "alt_km": 760.4242976156074, "timestamp": "2025-12-12T05:47:29.055545+00:00", "meta": {"OBJECT_NAME": "FENGYUN 1C DEB", "OBJECT_ID": "1999-025CHY", "EPOCH": "2025-12-09T20:53:13.363584", "MEAN_MOTION": 14.03149473, "ECCENTRICITY": 0.01627896, "INCLINATION": 98.3687, "RA_OF_ASC_NODE": 204.2994, "ARG_OF_PERICENTER": 85.6379, "MEAN_ANOMALY": 276.3369, "EPHEMERIS_TYPE": 0, "CLASSIFICATION_TYPE": "U", "NORAD_CAT_ID": 31834, "ELEMENT_SET_NO": 999, "REV_AT_EPOCH": 63670, "BSTAR": 0.0003269866, "MEAN_MOTION_DOT": 5.35e-06, "MEAN_MOTION_DDOT": 0}, "tle": {"line1": "1 31834U 99025CHY 25343.87029356  .00000535  00000+0  32699-3 0  9995", "line2": "2 31834  98.3687 204.2994 0162789  85.6379 276.3369 14.03149473636707"}}, "geometry": {"type": "Point", "coordinates": [99.72329529343912, 81.2603294707397]}}, {"type": "Feature", "properties": {"norad_id": 31837, "name": "FENGYUN 1C DEB", "group": "fengyun-1c-debris", "lat": -35.7600234189679, "lon": -124.11168685401636, "alt_km": 691.4436433649107, "timestamp": "2025-12-12T05:47:29.055558+00:00", "meta": {"OBJECT_NAME": "FENGYUN 1C DEB", "OBJECT_ID": "1999-025CJB", "EPOCH": "2025-12-11T10:59:52.654848", "MEAN_MOTION": 14.8220749, "ECCENTRICITY": 0.0093842, "INCLINATION": 98.1006, "RA_OF_ASC_NODE": 60.983, "ARG_OF_PERICENTER": 21.8431, "MEAN_ANOMALY": 338.6741, "EPHEMERIS_TYPE": 0, "CLASSIFICATION_TYPE": "U", "NORAD_CAT_ID": 31837, "ELEMENT_SET_NO": 999, "REV_AT_EPOCH": 98340, "BSTAR": 0.0019985815, "MEAN_MOTION_DOT": 0.00017182, "MEAN_MOTION_DDOT": 0}, "tle": {"line1": "1 31837U 99025CJB 25345.45824832  .00017182  00000+0  19986-2 0  9995", "line2": "2 31837  98.1006  60.9830 0093842  21.8431 338.6741 14.82207490983402"}}, "geometry": {"type": "Point", "coordinates": [-124.11168685401636, -35.7600234189679]}}, {"type": "Feature", "properties": {"norad_id": 31838, "name": "FENGYUN 1C DEB", "group": "fengyun-1c-debris", "lat": -30.40781678413117, "lon": -148.22639021208064, "alt_km": 838.5961149681007, "timestamp": "2025-12-12T05:47:29.055570+00:00", "meta": {"OBJECT_NAME": "FENGYUN 1C DEB", "OBJECT_ID": "1999-025CJC", "EPOCH": "2025-12-11T08:48:04.078368", "MEAN_MOTION": 14.21128577, "ECCENTRICITY": 0.00386433, "INCLINATION": 98.718, "RA_OF_ASC_NODE": 36.0771, "ARG_OF_PERICENTER": 99.3908, "MEAN_ANOMALY": 318.9348, "EPHEMERIS_TYPE": 0, "CLASSIFICATION_TYPE": "U", "NORAD_CAT_ID": 31838, "ELEMENT_SET_NO": 999, "REV_AT_EPOCH": 64557, "BSTAR": 0.0011422603, "MEAN_MOTION_DOT": 2.458e-05, "MEAN_MOTION_DDOT": 0}, "tle": {"line1": "1 31838U 99025CJC 25345.36671387  .00002458  00000+0  11423-2 0  9999", "line2": "2 31838  98.7180  36.0771 0038643  99.3908 318.9348 14.21128577645575"}}, "geometry": {"type": "Point", "coordinates": [-148.22639021208064, -30.40781678413117]}}]}